[{"OBJECT_NAME":"STARLINK-36404","OBJECT_ID":"2026-022S","EPOCH":"2026-03-09T22:00:01.999584","MEAN_MOTION":15.63480189,"ECCENTRICITY":0.00017208,"INCLINATION":97.2848,"RA_OF_ASC_NODE":102.9106,"ARG_OF_PERICENTER":71.412,"MEAN_ANOMALY":339.7208,"EPHEMERIS_TYPE":0,"CLASSIFICATION_TYPE":"U","NORAD_CAT_ID":67664,"ELEMENT_SET_NO":999,"REV_AT_EPOCH":608,"BSTAR":-0.023644259,"MEAN_MOTION_DOT":-0.01928389,"MEAN_MOTION_DDOT":0},{"OBJECT_NAME":"CZ-2C R\/B","OBJECT_ID":"2014-014B","EPOCH":"2026-03-09T23:01:00.862464","MEAN_MOTION":15.34922702,"ECCENTRICITY":0.00700559,"INCLINATION":98.3314,"RA_OF_ASC_NODE":172.135,"ARG_OF_PERICENTER":276.2597,"MEAN_ANOMALY":83.0667,"EPHEMERIS_TYPE":0,"CLASSIFICATION_TYPE":"U","NORAD_CAT_ID":39625,"ELEMENT_SET_NO":999,"REV_AT_EPOCH":65564,"BSTAR":0.0004934259,"MEAN_MOTION_DOT":0.00018031,"MEAN_MOTION_DDOT":0}]
